#cP2014  2 15  0  0  0.00000000      96 ORBIT IGb08 HLM  IGS
## 1779 518400.00000000   900.00000000 56703 0.0000000000000
+   31   G01G02G03G04G05G06G07G08G09G10G11G12G13G14G15G16G17
+        G18G19G20G21G22G23G24G25G26G27G28G29G31G32  0  0  0
+          0  0  0  0  0  0  0  0  0  0  0  0  0  0  0  0  0
+          0  0  0  0  0  0  0  0  0  0  0  0  0  0  0  0  0
+          0  0  0  0  0  0  0  0  0  0  0  0  0  0  0  0  0
++         2  2  2  3  2  2  2  3  3  2  2  2  2  2  2  2  2
++         2  2  2  2  2  2  2  2  2  2  2  2  3  2  0  0  0
++         0  0  0  0  0  0  0  0  0  0  0  0  0  0  0  0  0
++         0  0  0  0  0  0  0  0  0  0  0  0  0  0  0  0  0
++         0  0  0  0  0  0  0  0  0  0  0  0  0  0  0  0  0
%c G  cc GPS ccc cccc cccc cccc cccc ccccc ccccc ccccc ccccc
%c cc cc ccc ccc cccc cccc cccc cccc ccccc ccccc ccccc ccccc
%f  1.2500000  1.025000000  0.00000000000  0.000000000000000
%f  0.0000000  0.000000000  0.00000000000  0.000000000000000
%i    0    0    0    0      0      0      0      0         0
%i    0    0    0    0      0      0      0      0         0
/* FINAL ORBIT COMBINATION FROM WEIGHTED AVERAGE OF:        
/* cod emr esa gfz grg jpl mit ngs                          
/* REFERENCED TO IGS TIME (IGST) AND TO WEIGHTED MEAN POLE: 
/* PCV:IGS08_1771 OL/AL:FES2004  NONE     Y  ORB:CMB CLK:CMB
*  2014  2 15  4 30  0.00000000
PG01  13608.038636 -22550.793070   2832.545954     -0.740122  9  7  3 118       
PG02 -17599.588914   5194.580050 -18756.323599    478.713062  7  9  6 146       
PG03  18086.073497   -722.766236  18953.019559    325.934251  5  8  5  98       
PG04 -11779.134631 -11288.001596 -21234.971735      5.553433  8  9  6  64       
PG05 -26410.688932   3012.937710   1845.331030   -388.484490  7  9  8 113       
PG06  20257.427825   8044.455617  15499.108782    276.057666  4  8  6 102       
PG07   3813.268651 -23597.811635  11290.054094    314.026204  5  8  7 115       
PG08  -4026.940870 -17129.238375  19829.545578     11.921496  5  7  9  50       
PG09  -5805.560695 -16833.486959  19124.128566 999999.999999
PG10 -19874.780068 -10077.412584 -15097.402705   -114.360617  7  9  4 133       
PG11  12753.385763 -19590.134976  11928.315920   -464.404675  4  6  4 105       
PG12 -17299.166039  11358.418899 -16570.437727    186.520082  5 10  6 111       
PG13  -2737.367213 -23347.413196 -12353.315585     29.482754  7  9  7 105       
PG14  14692.335204  21971.953235  -3092.183264    198.181399  3  7  6 112       
PG15 -12205.832620   9890.252971  21355.880041   -163.210221  6  8  6 130       
PG16  26580.724053  -1752.152605   2477.305191   -231.475574  3  8  5 109       
PG17 -15870.215206 -21026.400817  -4020.119987    -68.389933  4  8 10 120       
PG18   3264.533849  15944.449823  21441.355362    302.001056  6  8  2  87       
PG19  13088.744396  -7463.798692  21738.119884   -438.955472  5  9  3 109       
PG20  14622.102794 -14534.885096 -16893.974209    161.835706  6  8  3 109       
PG21  -1003.515362  23368.460090  12731.513717   -344.051246  7  7  4 101       
PG22  16221.958053  12154.303763  17438.910436    213.473861  5  7  3 111       
PG23   5895.041344 -16625.847321 -19635.730040      3.844166  7  9  6 115       
PG24 -15711.943160  19931.134441   7662.857084    -23.342226  9  4  6  89       
PG25  -3991.575423  14945.407408 -21631.598145     14.601168  5  5  3 134       
PG26 -17070.713255  -4285.570972  19336.507284    164.706422  4  8  5 125       
PG27  18617.891133   5016.262029  18281.314835    -18.674102  3 10  3 116       
PG28 -12663.705926 -13212.592850  19908.739701    332.632911  5  6  4 100       
PG29   1602.227853  22246.872893 -14410.924712    511.085473  7 10  5 124       
PG31  12844.214239   7217.480976 -21936.388120    333.234802  5 10  3 142       
PG32  23878.019514  -5979.257189  -9157.226608   -485.441475  4  7  5  77       
*  2014  2 15  4 45  0.00000000
PG01  13636.555239 -21997.044184   5641.336119     -0.738072  9  5  4 108       
PG02 -16838.053122   3033.940039 -19923.712789    478.715032  7  9  5 142       
PG03  19485.612373    972.110109  17557.339283    325.937813  5  8  5  96       
PG04 -10739.682866 -13384.196922 -20525.021478      5.553657  8  9  6  98       
PG05 -26491.761932   2738.197173   -973.507411   -388.482852  7  9  8 142       
PG06  21137.360341   9439.097393  13426.249521    276.070404  4  8  5  98       
PG07   4506.014203 -24531.877227   8708.356399    314.030113  5  7  7 111       
PG08  -2805.751543 -18920.694196  18290.217149     11.921939  5  7  9           
PG09  -4771.459603 -18778.208433  17564.681343 999999.999999
PG10 -18123.911892 -10390.194550 -16974.138370   -114.362477  7  9  3 129       
PG11  12937.640879 -17975.391309  14026.616872   -464.407757  4  7  4 105       
PG12 -19076.549411  11316.807310 -14493.719538    186.522255  5 10  6  93       
PG13  -1844.668367 -22097.756291 -14644.127172     29.479339  7  9  7 102       
PG14  14617.107299  22265.354677   -232.789170    198.178645  3  8  6 108       
PG15 -13697.964865   7935.858471  21292.694412   -163.211958  6  8  6 133       
PG16  26706.892699  -1603.918153   -405.446796   -231.474163  2  8  5 103       
PG17 -15862.528597 -21416.013010  -1184.717321    -68.393369  4  7  9 119       
PG18    897.675401  16172.201012  21471.212391    302.003012  6  8  3  96       
PG19  14345.140208  -5295.612331  21620.947898   -438.957529  4  9  3 112       
PG20  16445.054490 -14581.469484 -15049.888808    161.838850  6  8  4 104       
PG21  -1797.726196  24391.324254  10350.313874   -344.053359  7  7  4  88       
PG22  14199.558899  12527.966298  18880.805851    213.476157  5  7  3 112       
PG23   7321.590518 -14771.710752 -20644.321022      3.841235  6  8  5 125       
PG24 -15516.519335  18890.193577  10262.175161    -23.343004  9  4  6  63       
PG25  -6405.720547  15121.885244 -20903.899099     14.602830  4  5  2 132       
PG26 -18089.071855  -6285.623158  17885.022264    164.696595  4  9  5 126       
PG27  19653.379949   6725.403685  16572.134681    -18.675184  3  9  3 120       
PG28 -10451.276638 -13338.917308  21097.698416    332.635665  5  7  4 100       
PG29    516.275612  20840.552537 -16439.815242    511.088137  6 10  4 131       
PG31  11697.311818   9470.439591 -21694.083053    333.235069  5 10  4 131       
PG32  24799.598939  -5672.569909  -6493.766522   -485.435602  3  7  4  99       
*  2014  2 15  5  0  0.00000000
PG01  13578.653596 -21153.865662   8352.244005     -0.735956  9  4  5 113       
PG02 -16141.884489    736.453815 -20736.490545    478.716931  7  9  5 143       
PG03  20831.195635   2473.433300  15848.583042    325.941417  5  8  5 106       
PG04  -9838.272922 -15439.876520 -19469.482502      5.554155  8  9  7  91       
PG05 -26273.899862   2419.537718  -3775.763696   -388.481615  7  8  8 143       
PG06  21920.485482  10606.036851  11127.463644    276.083696  4  8  5  93       
PG07   5032.484707 -25222.070272   5974.381253    314.033300  5  7  7 110       
PG08  -1776.696314 -20611.907293  16432.775814     11.923671  5  7  9  35       
PG09  -3918.567411 -20588.854480  15688.614478 999999.999999
PG10 -16199.614291 -10817.219666 -18570.219198   -114.363503  7  9  1 128       
PG11  13172.255804 -16143.450885  15873.884420   -464.410765  4  7  4 105       
PG12 -20605.806382  11344.809312 -12165.777976    186.524355  4 10  6 110       
PG13   -753.719696 -20693.359494 -16683.317684     29.475634  7  9  7 115       
PG14  14376.209742  22294.880455   2630.598572    198.175782  2  8  5 102       
PG15 -15262.791480   6079.361205  20861.996954   -163.213964  7  7  6 133       
PG16  26518.907871  -1431.489569  -3281.375794   -231.473019  2  7  4 105       
PG17 -15687.401512 -21545.548573   1670.835984    -68.396461  3  7  9 117       
PG18  -1442.982579  16510.571503  21145.221598    302.005101  6  9  2  81       
PG19  15692.252050  -3229.248901  21128.450112   -438.959717  3  8  3 111       
PG20  18049.160153 -14666.964997 -12949.058521    161.841749  6  9  5 101       
PG21  -2448.672989  25193.648809   7790.979720   -344.055263  7  7  4  96       
PG22  12055.268283  13017.861784  20004.317559    213.478514  5  7  3 105       
PG23   8895.082982 -12919.717225 -21292.007698      3.838343  6  8  5 125       
PG24 -15273.920465  17574.467970  12683.923056    -23.343786  9  4  6  77       
PG25  -8706.581468  15413.470413 -19817.449754     14.604505  2  5  2 124       
PG26 -19109.175795  -8066.027735  16113.013830    164.686729  4  9  6 121       
PG27  20645.480516   8214.507756  14578.176200    -18.676265  3  9  4 113       
PG28  -8139.159458 -13602.682766  21943.343207    332.638300  4  7  4  90       
PG29   -768.711219  19320.199706 -18185.444215    511.090812  5 10  4 124       
PG31  10692.827328  11739.452566 -21071.839601    333.235285  4 10  5 131       
PG32  25424.185506  -5390.728214  -3714.622244   -485.430021  2  7  4  68       
EOF
